{
  "type": "FeatureCollection",
  "features": [
    {
      "type": "Feature",
      "properties": {
        "norad_id": 30232,
        "name": "FENGYUN 1C DEB",
        "group": "fengyun-1c-debris",
        "lat": -28.8156658364205,
        "lon": -167.16950722623375,
        "alt_km": 594.8888351751384,
        "timestamp": "2025-12-13T18:50:04.705533+00:00",
        "meta_object_name": "FENGYUN 1C DEB",
        "meta_object_id": "1999-025WR",
        "meta_epoch": "2025-12-13T03:08:04.506144",
        "meta_mean_motion": 14.63595618,
        "meta_eccentricity": 0.01359588,
        "meta_inclination": 98.6937,
        "meta_ra_of_asc_node": 187.3123,
        "meta_arg_of_pericenter": 348.595,
        "meta_mean_anomaly": 137.9835,
        "meta_ephemeris_type": 0,
        "meta_classification_type": "U",
        "meta_norad_cat_id": 30232,
        "meta_element_set_no": 999,
        "meta_rev_at_epoch": 99757,
        "meta_bstar": 0.0010098659,
        "meta_mean_motion_dot": 5.941e-05,
        "meta_mean_motion_ddot": 0,
        "tle_line1": "1 30232U 99025WR  25347.13060771  .00005941  00000+0  10099-2 0  9990",
        "tle_line2": "2 30232  98.6937 187.3123 0135958 348.5950 137.9835 14.63595618997575"
      },
      "geometry": {
        "type": "Point",
        "coordinates": [
          -167.16950722623375,
          -28.8156658364205
        ]
      }
    },
    {
      "type": "Feature",
      "properties": {
        "norad_id": 30234,
        "name": "FENGYUN 1C DEB",
        "group": "fengyun-1c-debris",
        "lat": 56.658779802979424,
        "lon": -14.820482675231414,
        "alt_km": 783.6628262908998,
        "timestamp": "2025-12-13T18:50:04.705544+00:00",
        "meta_object_name": "FENGYUN 1C DEB",
        "meta_object_id": "1999-025WT",
        "meta_epoch": "2025-12-13T07:00:31.257216",
        "meta_mean_motion": 14.1686543,
        "meta_eccentricity": 0.00670215,
        "meta_inclination": 98.6339,
        "meta_ra_of_asc_node": 358.0537,
        "meta_arg_of_pericenter": 73.6248,
        "meta_mean_anomaly": 352.3417,
        "meta_ephemeris_type": 0,
        "meta_classification_type": "U",
        "meta_norad_cat_id": 30234,
        "meta_element_set_no": 999,
        "meta_rev_at_epoch": 97464,
        "meta_bstar": 0.00048534892,
        "meta_mean_motion_dot": 9.52e-06,
        "meta_mean_motion_ddot": 0,
        "tle_line1": "1 30234U 99025WT  25347.29202844  .00000952  00000+0  48535-3 0  9992",
        "tle_line2": "2 30234  98.6339 358.0537 0067021  73.6248 352.3417 14.16865430974642"
      },
      "geometry": {
        "type": "Point",
        "coordinates": [
          -14.820482675231414,
          56.658779802979424
        ]
      }
    },
    {
      "type": "Feature",
      "properties": {
        "norad_id": 30235,
        "name": "FENGYUN 1C DEB",
        "group": "fengyun-1c-debris",
        "lat": -9.876655843907432,
        "lon": 7.458776774387558,
        "alt_km": 912.3555822559529,
        "timestamp": "2025-12-13T18:50:04.705554+00:00",
        "meta_object_name": "FENGYUN 1C DEB",
        "meta_object_id": "1999-025WU",
        "meta_epoch": "2025-12-13T07:15:33.256800",
        "meta_mean_motion": 14.08779275,
        "meta_eccentricity": 0.01534046,
        "meta_inclination": 98.7498,
        "meta_ra_of_asc_node": 5.454,
        "meta_arg_of_pericenter": 236.9521,
        "meta_mean_anomaly": 186.8476,
        "meta_ephemeris_type": 0,
        "meta_classification_type": "U",
        "meta_norad_cat_id": 30235,
        "meta_element_set_no": 999,
        "meta_rev_at_epoch": 96901,
        "meta_bstar": 0.00051162395,
        "meta_mean_motion_dot": 9.4e-06,
        "meta_mean_motion_ddot": 0,
        "tle_line1": "1 30235U 99025WU  25347.30246825  .00000940  00000+0  51162-3 0  9999",
        "tle_line2": "2 30235  98.7498   5.4540 0153404 236.9521 186.8476 14.08779275969018"
      },
      "geometry": {
        "type": "Point",
        "coordinates": [
          7.458776774387558,
          -9.876655843907432
        ]
      }
    },
    {
      "type": "Feature",
      "properties": {
        "norad_id": 30237,
        "name": "FENGYUN 1C DEB",
        "group": "fengyun-1c-debris",
        "lat": 41.99364121212148,
        "lon": 82.52659709042344,
        "alt_km": 753.8977771981545,
        "timestamp": "2025-12-13T18:50:04.705565+00:00",
        "meta_object_name": "FENGYUN 1C DEB",
        "meta_object_id": "1999-025WW",
        "meta_epoch": "2025-12-13T05:34:24.195936",
        "meta_mean_motion": 14.40906885,
        "meta_eccentricity": 0.00139369,
        "meta_inclination": 98.8257,
        "meta_ra_of_asc_node": 89.9965,
        "meta_arg_of_pericenter": 303.3144,
        "meta_mean_anomaly": 114.6176,
        "meta_ephemeris_type": 0,
        "meta_classification_type": "U",
        "meta_norad_cat_id": 30237,
        "meta_element_set_no": 999,
        "meta_rev_at_epoch": 97705,
        "meta_bstar": 0.004156015,
        "meta_mean_motion_dot": 0.00013326,
        "meta_mean_motion_ddot": 0,
        "tle_line1": "1 30237U 99025WW  25347.23222449  .00013326  00000+0  41560-2 0  9991",
        "tle_line2": "2 30237  98.8257  89.9965 0013936 303.3144 114.6176 14.40906885977051"
      },
      "geometry": {
        "type": "Point",
        "coordinates": [
          82.52659709042344,
          41.99364121212148
        ]
      }
    },
    {
      "type": "Feature",
      "properties": {
        "norad_id": 30239,
        "name": "FENGYUN 1C DEB",
        "group": "fengyun-1c-debris",
        "lat": -17.056651394296818,
        "lon": -47.05058503794287,
        "alt_km": 3069.501757350742,
        "timestamp": "2025-12-13T18:50:04.705576+00:00",
        "meta_object_name": "FENGYUN 1C DEB",
        "meta_object_id": "1999-025WY",
        "meta_epoch": "2025-12-11T08:47:04.200576",
        "meta_mean_motion": 11.38099167,
        "meta_eccentricity": 0.13466863,
        "meta_inclination": 99.5827,
        "meta_ra_of_asc_node": 134.2999,
        "meta_arg_of_pericenter": 32.9446,
        "meta_mean_anomaly": 334.8656,
        "meta_ephemeris_type": 0,
        "meta_classification_type": "U",
        "meta_norad_cat_id": 30239,
        "meta_element_set_no": 999,
        "meta_rev_at_epoch": 54519,
        "meta_bstar": 0.02191781,
        "meta_mean_motion_dot": 7.285e-05,
        "meta_mean_motion_ddot": 0,
        "tle_line1": "1 30239U 99025WY  25345.36602084  .00007285  00000+0  21918-1 0  9993",
        "tle_line2": "2 30239  99.5827 134.2999 1346686  32.9446 334.8656 11.38099167545192"
      },
      "geometry": {
        "type": "Point",
        "coordinates": [
          -47.05058503794287,
          -17.056651394296818
        ]
      }
    },
    {
      "type": "Feature",
      "properties": {
        "norad_id": 30241,
        "name": "FENGYUN 1C DEB",
        "group": "fengyun-1c-debris",
        "lat": -34.91303453471243,
        "lon": -65.77523973330885,
        "alt_km": 944.2832057843543,
        "timestamp": "2025-12-13T18:50:04.705586+00:00",
        "meta_object_name": "FENGYUN 1C DEB",
        "meta_object_id": "1999-025XA",
        "meta_epoch": "2025-12-13T07:53:44.258208",
        "meta_mean_motion": 14.09547656,
        "meta_eccentricity": 0.01468163,
        "meta_inclination": 99.1485,
        "meta_ra_of_asc_node": 120.2194,
        "meta_arg_of_pericenter": 79.464,
        "meta_mean_anomaly": 343.1268,
        "meta_ephemeris_type": 0,
        "meta_classification_type": "U",
        "meta_norad_cat_id": 30241,
        "meta_element_set_no": 999,
        "meta_rev_at_epoch": 96920,
        "meta_bstar": 0.00042212771,
        "meta_mean_motion_dot": 7.71e-06,
        "meta_mean_motion_ddot": 0,
        "tle_line1": "1 30241U 99025XA  25347.32898447  .00000771  00000+0  42213-3 0  9990",
        "tle_line2": "2 30241  99.1485 120.2194 0146816  79.4640 343.1268 14.09547656969203"
      },
      "geometry": {
        "type": "Point",
        "coordinates": [
          -65.77523973330885,
          -34.91303453471243
        ]
      }
    },
    {
      "type": "Feature",
      "properties": {
        "norad_id": 30242,
        "name": "FENGYUN 1C DEB",
        "group": "fengyun-1c-debris",
        "lat": 0.2663855225282801,
        "lon": -158.02776548757154,
        "alt_km": 841.0884379248455,
        "timestamp": "2025-12-13T18:50:04.705597+00:00",
        "meta_object_name": "FENGYUN 1C DEB",
        "meta_object_id": "1999-025XB",
        "meta_epoch": "2025-12-13T01:20:20.814144",
        "meta_mean_motion": 14.17639055,
        "meta_eccentricity": 0.00110675,
        "meta_inclination": 98.6834,
        "meta_ra_of_asc_node": 21.2191,
        "meta_arg_of_pericenter": 54.0511,
        "meta_mean_anomaly": 7.2006,
        "meta_ephemeris_type": 0,
        "meta_classification_type": "U",
        "meta_norad_cat_id": 30242,
        "meta_element_set_no": 999,
        "meta_rev_at_epoch": 97431,
        "meta_bstar": 0.00082536385,
        "meta_mean_motion_dot": 1.637e-05,
        "meta_mean_motion_ddot": 0,
        "tle_line1": "1 30242U 99025XB  25347.05579646  .00001637  00000+0  82536-3 0  9992",
        "tle_line2": "2 30242  98.6834  21.2191 0011067  54.0511   7.2006 14.17639055974318"
      },
      "geometry": {
        "type": "Point",
        "coordinates": [
          -158.02776548757154,
          0.2663855225282801
        ]
      }
    }
  ]
}